[{"OBJECT_NAME":"SAUDISAT 5B","OBJECT_ID":"2018-102C","EPOCH":"2026-03-09T22:59:17.457216","MEAN_MOTION":15.27248504,"ECCENTRICITY":0.00120577,"INCLINATION":97.3281,"RA_OF_ASC_NODE":135.3629,"ARG_OF_PERICENTER":124.0958,"MEAN_ANOMALY":236.1427,"EPHEMERIS_TYPE":0,"CLASSIFICATION_TYPE":"U","NORAD_CAT_ID":43833,"ELEMENT_SET_NO":999,"REV_AT_EPOCH":40064,"BSTAR":0.00024926623,"MEAN_MOTION_DOT":6.596e-5,"MEAN_MOTION_DDOT":0},{"OBJECT_NAME":"STARLINK-30204","OBJECT_ID":"2023-107R","EPOCH":"2026-03-09T03:23:43.752768","MEAN_MOTION":15.26731738,"ECCENTRICITY":0.00018257,"INCLINATION":43.0031,"RA_OF_ASC_NODE":339.1618,"ARG_OF_PERICENTER":10.6068,"MEAN_ANOMALY":349.4822,"EPHEMERIS_TYPE":0,"CLASSIFICATION_TYPE":"U","NORAD_CAT_ID":57472,"ELEMENT_SET_NO":999,"REV_AT_EPOCH":14506,"BSTAR":6.1620178e-5,"MEAN_MOTION_DOT":1.393e-5,"MEAN_MOTION_DDOT":0}]
